WORLDVIEW-1 (WV-1)      
1 32060U 07041A   26194.28601410  .00003525  00000+0  14611-3 0  9997
2 32060  97.3901 313.6626 0001348 215.1464 144.9685 15.24545847 46853
WORLDVIEW-2 (WV-2)      
1 35946U 09055A   26194.25850563  .00000038  00000+0  27118-4 0  9995
2 35946  98.4757 267.3531 0005233 134.5546 225.6069 14.37906621879392
WORLDVIEW-3 (WV-3)      
1 40115U 14048A   26194.31056555  .00000434  00000+0  57002-4 0  9998
2 40115  97.8557 268.7820 0001156 159.0945 201.0318 14.85062508645787
